#cP2021  4 28  0  0  0.00000000      96 ORBIT IGb14 HLM  IGS
## 2155 259200.00000000   900.00000000 59332 0.0000000000000
+   21   R01R02R03R04R05R07R08R09R11R12R13R14R15R16R17R18R19
+        R20R21R22R24  0  0  0  0  0  0  0  0  0  0  0  0  0
+          0  0  0  0  0  0  0  0  0  0  0  0  0  0  0  0  0
+          0  0  0  0  0  0  0  0  0  0  0  0  0  0  0  0  0
+          0  0  0  0  0  0  0  0  0  0  0  0  0  0  0  0  0
++         4  3  3  4  3  3  3  4  3  3  4  3  3  4  3  3  4
++         4  3  5  3  0  0  0  0  0  0  0  0  0  0  0  0  0
++         0  0  0  0  0  0  0  0  0  0  0  0  0  0  0  0  0
++         0  0  0  0  0  0  0  0  0  0  0  0  0  0  0  0  0
++         0  0  0  0  0  0  0  0  0  0  0  0  0  0  0  0  0
%c R  cc GPS ccc cccc cccc cccc cccc ccccc ccccc ccccc ccccc
%c cc cc ccc ccc cccc cccc cccc cccc ccccc ccccc ccccc ccccc
%f  1.2500000  1.025000000  0.00000000000  0.000000000000000
%f  0.0000000  0.000000000  0.00000000000  0.000000000000000
%i    0    0    0    0      0      0      0      0         0
%i    0    0    0    0      0      0      0      0         0
/* FINAL ORBIT COMBINATION FROM WEIGHTED AVERAGE OF:        
/* brx cod emx esx gfz grg iac mcc                          
/*                                                          
/* PCV:IGS14_2148 OL/AL:FES2004  NONE     Y  ORB:CMB CLK:CMB
*  2021  4 28 14  0  0.00000000
PR01  12402.392068   2341.974846 -22156.809920     78.583021 14  8 10           
PR02   2660.851664 -17746.064433 -18055.543307    476.561371  5 10  9           
PR03  -7475.808234 -24191.654124  -2816.855467     35.009232  7  5 10           
PR04 -13122.865190 -16972.758426  13827.029868     84.431468 11 11 11           
PR05 -11485.469438   -304.923022  22787.859830     70.770027  9  9  8           
PR07   7725.959823  24229.327467   2296.102012    -42.514060  9  5 11           
PR08  13175.079029  16961.897660 -13715.893233    -58.744218  9 10  9           
PR09 -11356.512923   8717.614525 -21114.458520     -9.802544 13 11  9           
PR11  22288.029814   7974.111601  -9481.229616     -1.085779  7 10 12           
PR12  24008.890019   -165.848847   8668.168610    224.528202 12  6 11           
PR13  11867.803769  -8278.138454  20987.968668    -54.049421 11 16  9           
PR14  -7932.181689 -11704.239637  21242.855651     63.638088  7 10  7           
PR15 -22396.003603  -8200.599625   9062.894059    104.117092  8  8 10           
PR16 -23539.089842   1322.411214  -9597.141612    -14.386126 11 12 10           
PR17   4186.282498 -17647.189909 -17946.806402    419.586394  9 10  9           
PR18  -8973.824067  -5527.161841 -23219.677670     74.668543  9  9  8           
PR19 -17376.318247   8315.176170 -16724.855098   -141.579644 11 13 11           
PR20 -16338.202037  19526.825463   1942.808334    -48.142042 13 11 14           
PR21  -3311.948964  16965.588362  18746.565638   -205.021079  9  9  8           
PR22   9551.009501   4728.442170  23151.270736   -110.071009 14 14 10           
PR24  15699.017697 -19936.423330  -2623.502348     40.592252 12 11 10           
*  2021  4 28 14 15  0.00000000
PR01  13495.316130   4778.659072 -21100.433590     78.583952 14  9 11           
PR02   3456.722890 -15530.898259 -19870.951544    476.563234  6 10  9           
PR03  -7395.052585 -23631.712552  -5970.376658     35.009232  7  5 10           
PR04 -13822.467738 -18345.409582  11120.987210     84.432625 11 11 11           
PR05 -12547.593992  -2855.786246  22036.344917     70.775727  9  9  8           
PR07   7682.097255  23737.496863   5457.150953    -42.513128  9  4 11           
PR08  13861.953801  18339.896938 -11012.517575    -58.745149  9 10  9           
PR09 -13859.917949   8452.489372 -19685.716175     -9.800456 13 11 10           
PR11  20967.417157   7677.093949 -12314.051647     -1.087867  8 10 12           
PR12  24897.313776   -185.479629   5618.633532    224.530516 11  7 11           
PR13  14357.522115  -8037.110867  19472.840090    -54.051284 12 16 10           
PR14  -5280.151213 -11310.599966  22255.786687     63.639019  7 10  6           
PR15 -21132.726078  -7903.227488  11916.669891    104.117092  8  8 10           
PR16 -24542.919541   1313.887050  -6598.696246    -14.388101 11 12 11           
PR17   5361.767860 -19368.669579 -15724.443257    419.590458  9 10 10           
PR18  -7187.338792  -7774.524123 -23192.945475     74.669587 10  9  7           
PR19 -15854.322881   6724.252589 -18820.902194   -141.581619 11 12 11           
PR20 -16185.030488  19706.022148  -1303.307863    -48.142973 13 12 14           
PR21  -4563.631361  18765.992013  16649.472459   -205.024212 10  9  8           
PR22   7747.755234   6965.867652  23267.919129   -110.073098 14 13 11           
PR24  15652.221116 -20138.181774    592.463800     40.593409 12 11 10           
*  2021  4 28 14 30  0.00000000
PR01  14689.235824   6992.572906 -19633.820586     78.583952 14  9 11           
PR02   4498.651234 -13199.458197 -21298.072505    476.563234  7 10  8           
PR03  -7105.977749 -22736.068924  -9007.405032     35.009232  7  5 10           
PR04 -14469.449977 -19352.159583   8199.227100     84.434262 11 11 11           
PR05 -13742.721319  -5215.113790  20857.404678     70.776546  9  9  7           
PR07   7435.477243  22906.825641   8512.578161    -42.513128 10  4 11           
PR08  14495.413149  19352.572825  -8094.773713    -58.745149 10 10  9           
PR09 -16176.115790   8376.267427 -17874.997496     -9.798818 13 11 11           
PR11  19294.990180   7460.335124 -14907.416456     -1.089504  8 10 12           
PR12  25401.042633   -293.808263   2460.154331    224.533790 11  7 12           
PR13  16648.378980  -7988.293786  17578.871147    -54.051284 13 16 11           
PR14  -2508.714252 -11102.366884  22836.970374     63.639019  7 10  6           
PR15 -19515.192254  -7675.609306  14539.170425    104.117092  8  8  9           
PR16 -25166.982037   1392.275270  -3471.167256    -14.388920 10 12 11           
PR17   6240.258766 -20932.192932 -13196.991968    419.592913  9 10 10           
PR18  -5594.072552 -10126.057968 -22715.147687     74.670406 10  9  7           
PR19 -14321.323693   4830.746780 -20551.523951   -141.582438 12 12 11           
PR20 -15785.981801  19551.527611  -4524.181767    -48.142973 13 12 13           
PR21  -5518.614143  20426.793302  14228.642256   -205.026667 10  9  9           
PR22   6128.867798   9322.511608  22931.975014   -110.074735 14 13 12           
PR24  15363.418168 -20012.982618   3796.929644     40.595046 12 12 10           
*  2021  4 28 14 45  0.00000000
PR01  15933.866339   8940.155426 -17785.440333     78.584884 14 10 11           
PR02   5781.588000 -10819.388440 -22309.095499    476.564165  7 11  7           
PR03  -6571.631813 -21547.956636 -11868.598342     35.009232  7  5 10           
PR04 -15005.490117 -19988.353174   5118.348036     84.436351 10 11 12           
PR05 -15024.235041  -7332.785887  19273.791648     70.777590  9 10  7           
PR07   6948.106622  21779.215117  11403.326850    -42.512197 10  4 11           
PR08  15017.772286  19995.672788  -5019.587227    -58.746081 10 10 10           
PR09 -18247.206163   8461.783428 -15717.637171     -9.796730 13 11 11           
PR11  17309.754989   7370.805207 -17210.895864     -1.091593  9 10 11           
PR12  25504.149410   -437.582393   -746.038521    224.536120 10  7 12           
PR13  18682.294432  -8102.489367  15342.947368    -54.052215 13 16 11           
PR14    314.905178 -11093.948735  22975.094420     63.639950  5 10  6           
PR15 -17580.268912  -7565.369271  16879.569117    104.117092  8  7  9           
PR16 -25393.443515   1505.268847   -275.696140    -14.389964 10 12 11           
PR17   6833.319239 -22275.908994 -10413.537852    419.596046  9 10 10           
PR18  -4227.670306 -12518.381559 -21795.361101     74.671450 10  9  7           
PR19 -12838.263857   2665.889078 -21883.139395   -141.584413 12 12 11           
PR20 -15192.658784  19036.705031  -7657.418945    -48.143904 13 13 13           
PR21  -6184.937816  21884.279653  11531.110304   -205.028868 10  9  9           
PR22   4730.602651  11736.161033  22150.376687   -110.076823 14 13 13           
PR24  14881.766943 -19534.218601   6927.687372     40.596203 12 12  9           
EOF
